{
  "type": "FeatureCollection",
  "features": [
    {
      "type": "Feature",
      "properties": {
        "norad_id": 35961,
        "name": "COSMOS 2251 DEB",
        "group": "cosmos-2251-debris",
        "lat": -53.290739496436636,
        "lon": 24.6467215591105,
        "alt_km": 957.2716974331024,
        "timestamp": "2025-12-25T09:48:52.686004+00:00",
        "meta_object_name": "COSMOS 2251 DEB",
        "meta_object_id": "1993-036AVB",
        "meta_epoch": "2025-12-23T19:07:42.767328",
        "meta_mean_motion": 14.05444821,
        "meta_eccentricity": 0.01917264,
        "meta_inclination": 73.9256,
        "meta_ra_of_asc_node": 184.7319,
        "meta_arg_of_pericenter": 115.7574,
        "meta_mean_anomaly": 246.3488,
        "meta_ephemeris_type": 0,
        "meta_classification_type": "U",
        "meta_norad_cat_id": 35961,
        "meta_element_set_no": 999,
        "meta_rev_at_epoch": 62837,
        "meta_bstar": 0.0013269491,
        "meta_mean_motion_dot": 2.518e-05,
        "meta_mean_motion_ddot": 0,
        "tle_line1": "1 35961U 93036AVB 25357.79702277  .00002518  00000+0  13269-2 0  9996",
        "tle_line2": "2 35961  73.9256 184.7319 0191726 115.7574 246.3488 14.05444821628371"
      },
      "geometry": {
        "type": "Point",
        "coordinates": [
          24.6467215591105,
          -53.290739496436636
        ]
      }
    },
    {
      "type": "Feature",
      "properties": {
        "norad_id": 35979,
        "name": "COSMOS 2251 DEB",
        "group": "cosmos-2251-debris",
        "lat": 39.067576722500135,
        "lon": -132.9409227288221,
        "alt_km": 620.4722325027824,
        "timestamp": "2025-12-25T09:48:52.686013+00:00",
        "meta_object_name": "COSMOS 2251 DEB",
        "meta_object_id": "1993-036AVV",
        "meta_epoch": "2025-12-22T21:28:01.748352",
        "meta_mean_motion": 14.74747539,
        "meta_eccentricity": 0.0059307,
        "meta_inclination": 74.008,
        "meta_ra_of_asc_node": 218.5159,
        "meta_arg_of_pericenter": 348.3492,
        "meta_mean_anomaly": 27.9615,
        "meta_ephemeris_type": 0,
        "meta_classification_type": "U",
        "meta_norad_cat_id": 35979,
        "meta_element_set_no": 999,
        "meta_rev_at_epoch": 88783,
        "meta_bstar": 0.00076773,
        "meta_mean_motion_dot": 5.251e-05,
        "meta_mean_motion_ddot": 0,
        "tle_line1": "1 35979U 93036AVV 25356.89446468  .00005251  00000+0  76773-3 0  9999",
        "tle_line2": "2 35979  74.0080 218.5159 0059307 348.3492  27.9615 14.74747539887837"
      },
      "geometry": {
        "type": "Point",
        "coordinates": [
          -132.9409227288221,
          39.067576722500135
        ]
      }
    },
    {
      "type": "Feature",
      "properties": {
        "norad_id": 35980,
        "name": "COSMOS 2251 DEB",
        "group": "cosmos-2251-debris",
        "lat": -55.2846773768885,
        "lon": 73.73093966436655,
        "alt_km": 688.4582378185705,
        "timestamp": "2025-12-25T09:48:52.686023+00:00",
        "meta_object_name": "COSMOS 2251 DEB",
        "meta_object_id": "1993-036AVW",
        "meta_epoch": "2025-12-25T00:12:48.466656",
        "meta_mean_motion": 14.59467101,
        "meta_eccentricity": 0.0053654,
        "meta_inclination": 73.9124,
        "meta_ra_of_asc_node": 99.1155,
        "meta_arg_of_pericenter": 232.0037,
        "meta_mean_anomaly": 127.6276,
        "meta_ephemeris_type": 0,
        "meta_classification_type": "U",
        "meta_norad_cat_id": 35980,
        "meta_element_set_no": 999,
        "meta_rev_at_epoch": 61665,
        "meta_bstar": 0.0016475,
        "meta_mean_motion_dot": 7.951e-05,
        "meta_mean_motion_ddot": 0,
        "tle_line1": "1 35980U 93036AVW 25359.00889429  .00007951  00000+0  16475-2 0  9996",
        "tle_line2": "2 35980  73.9124  99.1155 0053654 232.0037 127.6276 14.59467101616656"
      },
      "geometry": {
        "type": "Point",
        "coordinates": [
          73.73093966436655,
          -55.2846773768885
        ]
      }
    },
    {
      "type": "Feature",
      "properties": {
        "norad_id": 35982,
        "name": "COSMOS 2251 DEB",
        "group": "cosmos-2251-debris",
        "lat": 18.262619611364656,
        "lon": -31.911393854993406,
        "alt_km": 638.7348393059792,
        "timestamp": "2025-12-25T09:48:52.686033+00:00",
        "meta_object_name": "COSMOS 2251 DEB",
        "meta_object_id": "1993-036AVY",
        "meta_epoch": "2025-12-24T04:11:05.846208",
        "meta_mean_motion": 14.628153,
        "meta_eccentricity": 0.00645539,
        "meta_inclination": 74.0585,
        "meta_ra_of_asc_node": 325.0386,
        "meta_arg_of_pericenter": 27.9995,
        "meta_mean_anomaly": 332.4619,
        "meta_ephemeris_type": 0,
        "meta_classification_type": "U",
        "meta_norad_cat_id": 35982,
        "meta_element_set_no": 999,
        "meta_rev_at_epoch": 86333,
        "meta_bstar": 0.00066289609,
        "meta_mean_motion_dot": 3.457e-05,
        "meta_mean_motion_ddot": 0,
        "tle_line1": "1 35982U 93036AVY 25358.17437322  .00003457  00000+0  66290-3 0  9994",
        "tle_line2": "2 35982  74.0585 325.0386 0064553  27.9995 332.4619 14.62815300863330"
      },
      "geometry": {
        "type": "Point",
        "coordinates": [
          -31.911393854993406,
          18.262619611364656
        ]
      }
    },
    {
      "type": "Feature",
      "properties": {
        "norad_id": 35987,
        "name": "COSMOS 2251 DEB",
        "group": "cosmos-2251-debris",
        "lat": -18.022280960918778,
        "lon": 128.41571569444355,
        "alt_km": 775.3506556442953,
        "timestamp": "2025-12-25T09:48:52.686043+00:00",
        "meta_object_name": "COSMOS 2251 DEB",
        "meta_object_id": "1993-036AWD",
        "meta_epoch": "2025-12-24T02:57:19.909440",
        "meta_mean_motion": 14.43193556,
        "meta_eccentricity": 0.00463714,
        "meta_inclination": 74.0006,
        "meta_ra_of_asc_node": 305.4518,
        "meta_arg_of_pericenter": 67.5999,
        "meta_mean_anomaly": 293.006,
        "meta_ephemeris_type": 0,
        "meta_classification_type": "U",
        "meta_norad_cat_id": 35987,
        "meta_element_set_no": 999,
        "meta_rev_at_epoch": 61229,
        "meta_bstar": 0.0010350673,
        "meta_mean_motion_dot": 3.5e-05,
        "meta_mean_motion_ddot": 0,
        "tle_line1": "1 35987U 93036AWD 25358.12314710  .00003500  00000+0  10351-2 0  9994",
        "tle_line2": "2 35987  74.0006 305.4518 0046371  67.5999 293.0060 14.43193556612294"
      },
      "geometry": {
        "type": "Point",
        "coordinates": [
          128.41571569444355,
          -18.022280960918778
        ]
      }
    },
    {
      "type": "Feature",
      "properties": {
        "norad_id": 35989,
        "name": "COSMOS 2251 DEB",
        "group": "cosmos-2251-debris",
        "lat": -31.39939856225149,
        "lon": -109.52691436018782,
        "alt_km": 757.9788923269844,
        "timestamp": "2025-12-25T09:48:52.686053+00:00",
        "meta_object_name": "COSMOS 2251 DEB",
        "meta_object_id": "1993-036AWF",
        "meta_epoch": "2025-12-24T23:56:32.042112",
        "meta_mean_motion": 14.37117846,
        "meta_eccentricity": 0.0022527,
        "meta_inclination": 74.0381,
        "meta_ra_of_asc_node": 261.2904,
        "meta_arg_of_pericenter": 340.4505,
        "meta_mean_anomaly": 19.5782,
        "meta_ephemeris_type": 0,
        "meta_classification_type": "U",
        "meta_norad_cat_id": 35989,
        "meta_element_set_no": 999,
        "meta_rev_at_epoch": 87355,
        "meta_bstar": 0.00020115,
        "meta_mean_motion_dot": 5.73e-06,
        "meta_mean_motion_ddot": 0,
        "tle_line1": "1 35989U 93036AWF 25358.99759308  .00000573  00000+0  20115-3 0  9994",
        "tle_line2": "2 35989  74.0381 261.2904 0022527 340.4505  19.5782 14.37117846873554"
      },
      "geometry": {
        "type": "Point",
        "coordinates": [
          -109.52691436018782,
          -31.39939856225149
        ]
      }
    },
    {
      "type": "Feature",
      "properties": {
        "norad_id": 35993,
        "name": "COSMOS 2251 DEB",
        "group": "cosmos-2251-debris",
        "lat": 49.17477824646892,
        "lon": -32.237185519763145,
        "alt_km": 668.2742291602717,
        "timestamp": "2025-12-25T09:48:52.686062+00:00",
        "meta_object_name": "COSMOS 2251 DEB",
        "meta_object_id": "1993-036AWK",
        "meta_epoch": "2025-12-21T03:59:29.501088",
        "meta_mean_motion": 14.65356197,
        "meta_eccentricity": 0.0028516,
        "meta_inclination": 74.0154,
        "meta_ra_of_asc_node": 316.5577,
        "meta_arg_of_pericenter": 143.4068,
        "meta_mean_anomaly": 216.9056,
        "meta_ephemeris_type": 0,
        "meta_classification_type": "U",
        "meta_norad_cat_id": 35993,
        "meta_element_set_no": 999,
        "meta_rev_at_epoch": 60566,
        "meta_bstar": 0.00046927088,
        "meta_mean_motion_dot": 2.519e-05,
        "meta_mean_motion_ddot": 0,
        "tle_line1": "1 35993U 93036AWK 25355.16631367  .00002519  00000+0  46927-3 0  9990",
        "tle_line2": "2 35993  74.0154 316.5577 0028516 143.4068 216.9056 14.65356197605663"
      },
      "geometry": {
        "type": "Point",
        "coordinates": [
          -32.237185519763145,
          49.17477824646892
        ]
      }
    }
  ]
}